NORAD_CAT_ID,OBJECT_NAME,OBJECT_TYPE,EPOCH,MEAN_MOTION,ECCENTRICITY,INCLINATION,RA_OF_ASC_NODE,ARG_OF_PERICENTER,MEAN_ANOMALY,BSTAR,MEAN_MOTION_DOT,MEAN_MOTION_DDOT,TLE_LINE0,TLE_LINE1,TLE_LINE2,SEMIMAJOR_AXIS,PERIOD,APOGEE,PERIGEE,DECAYED
49172.0,STARLINK-3091,PAYLOAD,2023-11-09 03:27:57,14.98368146,0.0002937,70.0009,261.4952,256.0467,104.0365,0.0013788,0.00016413,0.0,0 STARLINK-3091,1 49172U 21082AU  23313.14441751  .00016413  00000-0  13788-2 0  9999,2 49172  70.0009 261.4952 0002937 256.0467 104.0365 14.98368146118910,6950.075,96.105,573.981,569.899,0.0
49172.0,STARLINK-3091,PAYLOAD,2023-11-09 06:40:13,14.98374847,0.0002957,70.0009,261.1583,256.8551,103.2278,0.0017489,0.00020861,0.0,0 STARLINK-3091,1 49172U 21082AU  23313.27793353  .00020861  00000-0  17489-2 0  9995,2 49172  70.0009 261.1583 0002957 256.8551 103.2278 14.98374847118932,6950.054,96.104,573.974,569.864,0.0
49172.0,STARLINK-3091,PAYLOAD,2023-11-09 22:41:34,14.98346594,0.0002888,70.0013,259.4774,259.0275,101.0559,0.0010888,0.00012928,0.0,0 STARLINK-3091,1 49172U 21082AU  23313.94553293  .00012928  00000-0  10888-2 0  9997,2 49172  70.0013 259.4774 0002888 259.0275 101.0559 14.98346594119038,6950.142,96.106,574.014,569.999,0.0
49172.0,STARLINK-3091,PAYLOAD,2023-11-10 03:29:58,14.98336287,0.0002556,70.0018,258.9705,257.8992,102.188,-0.000146,-1.835e-05,0.0,0 STARLINK-3091,1 49172U 21082AU  23314.14581281 -.00001835  00000-0 -14600-3 0  9992,2 49172  70.0018 258.9705 0002556 257.8992 102.1880 14.98336287119065,6950.173,96.107,573.815,570.262,0.0
49172.0,STARLINK-3091,PAYLOAD,2023-11-10 13:06:46,14.98335929,0.0002707,70.0014,257.9589,263.4285,96.6566,0.00050143,5.896e-05,0.0,0 STARLINK-3091,1 49172U 21082AU  23314.54637345  .00005896  00000-0  50143-3 0  9990,2 49172  70.0014 257.9589 0002707 263.4285  96.6566 14.98335929119123,6950.175,96.107,573.921,570.158,0.0
49172.0,STARLINK-3091,PAYLOAD,2023-11-11 03:31:58,14.98339388,0.0002605,70.0013,256.4448,257.9879,102.0988,7.1325e-05,7.58e-06,0.0,0 STARLINK-3091,1 49172U 21082AU  23315.14721058  .00000758  00000-0  71325-4 0  9990,2 49172  70.0013 256.4448 0002605 257.9879 102.0988 14.98339388119217,6950.164,96.106,573.839,570.218,0.0
49172.0,STARLINK-3091,PAYLOAD,2023-11-11 13:08:47,14.98338951,0.0002092,70.0026,255.4342,266.5951,93.4969,-2.8374e-05,-4.31e-06,0.0,0 STARLINK-3091,1 49172U 21082AU  23315.54777137 -.00000431  00000-0 -28374-4 0  9999,2 49172  70.0026 255.4342 0002092 266.5951  93.4969 14.98338951119273,6950.165,96.106,573.484,570.576,0.0
49172.0,STARLINK-3091,PAYLOAD,2023-11-11 22:45:35,14.98332346,0.0002303,70.0016,254.4246,262.3232,97.7666,0.00020141,2.311e-05,0.0,0 STARLINK-3091,1 49172U 21082AU  23315.94833318  .00002311  00000-0  20141-3 0  9997,2 49172  70.0016 254.4246 0002303 262.3232  97.7666 14.98332346119335,6950.186,96.107,573.651,570.45,0.0
49172.0,STARLINK-3091,PAYLOAD,2023-11-12 03:34:00,14.98328528,0.0002596,70.0017,253.9198,264.9401,95.1462,0.00028018,3.251e-05,0.0,0 STARLINK-3091,1 49172U 21082AU  23316.14861462  .00003251  00000-0  28018-3 0  9996,2 49172  70.0017 253.9198 0002596 264.9401  95.1462 14.98328528119362,6950.197,96.107,573.867,570.258,0.0
49172.0,STARLINK-3091,PAYLOAD,2023-11-12 13:10:48,14.98334521,0.0002527,70.0014,252.9103,266.6888,93.3982,0.00013078,1.468e-05,0.0,0 STARLINK-3091,1 49172U 21082AU  23316.54917151  .00001468  00000-0  13078-3 0  9995,2 49172  70.0014 252.9103 0002527 266.6888  93.3982 14.98334521119420,6950.179,96.107,573.8,570.288,0.0
49172.0,STARLINK-3091,PAYLOAD,2023-11-12 21:11:28,14.98333836,0.000247,70.0015,252.069,266.5324,93.5553,6.3191e-05,6.61e-06,0.0,0 STARLINK-3091,1 49172U 21082AU  23316.88297127  .00000661  00000-0  63191-4 0  9992,2 49172  70.0015 252.0690 0002470 266.5324  93.5553 14.98333836119473,6950.181,96.107,573.763,570.329,0.0
49172.0,STARLINK-3091,PAYLOAD,2023-11-13 03:36:00,14.98337243,0.0002433,70.0,251.3962,263.0786,97.0096,0.00012311,1.377e-05,0.0,0 STARLINK-3091,1 49172U 21082AU  23317.15000989  .00001377  00000-0  12311-3 0  9993,2 49172  70.0000 251.3962 0002433 263.0786  97.0096 14.98337243119516,6950.17,96.107,573.726,570.345,0.0
49172.0,STARLINK-3091,PAYLOAD,2023-11-13 13:12:49,14.98324196,0.0002222,70.0002,250.3864,271.5034,88.587,0.00032525,3.789e-05,0.0,0 STARLINK-3091,1 49172U 21082AU  23317.55057686  .00003789  00000-0  32525-3 0  9991,2 49172  70.0002 250.3864 0002222 271.5034  88.5870 14.98324196119578,6950.211,96.107,573.62,570.532,0.0
49172.0,STARLINK-3091,PAYLOAD,2023-11-13 19:37:21,14.9833166,0.0002443,70.0002,249.7129,269.8036,90.2843,0.00010974,1.217e-05,0.0,0 STARLINK-3091,1 49172U 21082AU  23317.81761229  .00001217  00000-0  10974-3 0  9993,2 49172  70.0002 249.7129 0002443 269.8036  90.2843 14.98331660119610,6950.188,96.107,573.751,570.355,0.0
49172.0,STARLINK-3091,PAYLOAD,2023-11-14 13:14:50,14.98330715,0.0002437,70.0005,247.8586,270.2641,89.8239,4.8927e-05,4.91e-06,0.0,0 STARLINK-3091,1 49172U 21082AU  23318.55197234  .00000491  00000-0  48927-4 0  9997,2 49172  70.0005 247.8586 0002437 270.2641  89.8239 14.98330715119725,6950.191,96.107,573.749,570.362,0.0
49172.0,STARLINK-3091,PAYLOAD,2023-11-14 18:03:14,14.98328425,0.000258,70.0,247.3539,269.8363,90.2501,8.3967e-05,9.09e-06,0.0,0 STARLINK-3091,1 49172U 21082AU  23318.75225280  .00000909  00000-0  83967-4 0  9999,2 49172  70.0000 247.3539 0002580 269.8363  90.2501 14.98328425119753,6950.198,96.107,573.856,570.27,0.0
49172.0,STARLINK-3091,PAYLOAD,2023-11-15 05:16:10,14.983311,0.0002351,70.0002,246.1757,262.0174,98.0718,5.6755e-05,5.84e-06,0.0,0 STARLINK-3091,1 49172U 21082AU  23319.21957148  .00000584  00000-0  56755-4 0  9990,2 49172  70.0002 246.1757 0002351 262.0174  98.0718 14.98331100119823,6950.189,96.107,573.688,570.42,0.0
49172.0,STARLINK-3091,PAYLOAD,2023-11-16 02:05:55,14.98331012,0.0002258,70.0008,243.9883,276.6185,83.4717,0.00014136,1.594e-05,0.0,0 STARLINK-3091,1 49172U 21082AU  23320.08745116  .00001594  00000-0  14136-3 0  9995,2 49172  70.0008 243.9883 0002258 276.6185  83.4717 14.98331012119956,6950.19,96.107,573.624,570.485,0.0
49172.0,STARLINK-3091,PAYLOAD,2023-11-16 05:18:11,14.98330294,0.0002387,70.0012,243.6519,279.1177,80.9712,0.00020347,2.336e-05,0.0,0 STARLINK-3091,1 49172U 21082AU  23320.22097098  .00002336  00000-0  20347-3 0  9996,2 49172  70.0012 243.6519 0002387 279.1177  80.9712 14.98330294119976,6950.192,96.107,573.716,570.398,0.0
49172.0,STARLINK-3091,PAYLOAD,2023-11-17 03:44:05,14.98328495,0.0001779,70.0028,241.2963,301.621,58.4775,0.00015163,1.717e-05,0.0,0 STARLINK-3091,1 49172U 21082AU  23321.15561599  .00001717  00000-0  15163-3 0  9993,2 49172  70.0028 241.2963 0001779 301.6210  58.4775 14.98328495120110,6950.198,96.107,573.299,570.826,0.0
49172.0,STARLINK-3091,PAYLOAD,2023-11-17 11:44:45,14.98343333,0.000208,70.0019,240.4534,290.9843,69.1094,-0.00022216,-2.743e-05,0.0,0 STARLINK-3091,1 49172U 21082AU  23321.48941146 -.00002743  00000-0 -22216-3 0  9998,2 49172  70.0019 240.4534 0002080 290.9843  69.1094 14.98343333120169,6950.152,96.106,573.462,570.571,0.0
49172.0,STARLINK-3091,PAYLOAD,2023-11-17 22:57:41,14.98396109,0.0001427,70.0044,239.2757,301.4068,58.6951,-0.00096432,-0.00011599,0.0,0 STARLINK-3091,1 49172U 21082AU  23321.95672719 -.00011599  00000-0 -96432-3 0  9997,2 49172  70.0044 239.2757 0001427 301.4068  58.6951 14.98396109120233,6949.988,96.103,572.845,570.862,0.0
49172.0,STARLINK-3091,PAYLOAD,2023-11-18 03:46:05,14.98379751,0.0001924,70.003,238.7697,271.8962,88.1977,-0.0010011,-0.00012032,0.0,0 STARLINK-3091,1 49172U 21082AU  23322.15700786 -.00012032  00000-0 -10011-2 0  9997,2 49172  70.0030 238.7697 0001924 271.8962  88.1977 14.98379751120263,6950.039,96.104,573.241,570.567,0.0
49172.0,STARLINK-3091,PAYLOAD,2023-11-18 11:46:45,14.98372854,0.0001887,70.0026,237.9284,287.3849,72.7104,-0.00078515,-9.458e-05,0.0,0 STARLINK-3091,1 49172U 21082AU  23322.49080023 -.00009458  00000-0 -78515-3 0  9991,2 49172  70.0026 237.9284 0001887 287.3849  72.7104 14.98372854120319,6950.06,96.104,573.237,570.614,0.0
49172.0,STARLINK-3091,PAYLOAD,2023-11-18 18:11:18,14.98330356,0.0002257,70.0022,237.2559,276.7732,83.317,0.00010992,1.219e-05,0.0,0 STARLINK-3091,1 49172U 21082AU  23322.75785012  .00001219  00000-0  10992-3 0  9990,2 49172  70.0022 237.2559 0002257 276.7732  83.3170 14.98330356120354,6950.192,96.107,573.625,570.488,0.0
49172.0,STARLINK-3091,PAYLOAD,2023-11-18 22:59:41,14.98336485,0.0002079,70.0014,236.7515,268.9485,91.1436,0.00016268,1.849e-05,0.0,0 STARLINK-3091,1 49172U 21082AU  23322.95812337  .00001849  00000-0  16268-3 0  9994,2 49172  70.0014 236.7515 0002079 268.9485  91.1436 14.98336485120385,6950.173,96.107,573.483,570.593,0.0
49172.0,STARLINK-3091,PAYLOAD,2023-11-19 11:48:46,14.98330784,0.0002245,70.0009,235.4045,274.8043,85.2859,0.00011966,1.335e-05,0.0,0 STARLINK-3091,1 49172U 21082AU  23323.49220849  .00001335  00000-0  11966-3 0  9995,2 49172  70.0009 235.4045 0002245 274.8043  85.2859 14.98330784120462,6950.19,96.107,573.616,570.495,0.0
49172.0,STARLINK-3091,PAYLOAD,2023-11-19 19:49:27,14.98333319,0.000246,70.0001,234.5633,274.8833,85.2045,4.3483e-05,4.26e-06,0.0,0 STARLINK-3091,1 49172U 21082AU  23323.82600704  .00000426  00000-0  43483-4 0  9994,2 49172  70.0001 234.5633 0002460 274.8833  85.2045 14.98333319120513,6950.183,96.107,573.757,570.338,0.0
49172.0,STARLINK-3091,PAYLOAD,2023-11-19 21:25:35,14.98332325,0.0002486,70.0,234.395,274.7014,85.3861,2.7427e-05,2.34e-06,0.0,0 STARLINK-3091,1 49172U 21082AU  23323.89276733  .00000234  00000-0  27427-4 0  9999,2 49172  70.0000 234.3950 0002486 274.7014  85.3861 14.98332325120524,6950.186,96.107,573.779,570.323,0.0
49172.0,STARLINK-3091,PAYLOAD,2023-11-20 11:50:47,14.98332387,0.00026,70.0,232.8802,272.4382,87.6479,4.8434e-05,4.85e-06,0.0,0 STARLINK-3091,1 49172U 21082AU  23324.49360590  .00000485  00000-0  48434-4 0  9990,2 49172  70.0000 232.8802 0002600 272.4382  87.6479 14.98332387120612,6950.186,96.107,573.858,570.243,0.0
